KNACKSAT-2              
1 67683U 98067XZ  26167.06925752  .00039932  00000+0  48947-3 0  9998
2 67683  51.6312 300.0997 0009232 210.2496 149.7965 15.59891318 20102
INNOSAT 3 (RS92S0)      
1 64894U 25155U   26167.14590944  .00032900  00000+0  72704-3 0  9993
2 64894  97.4487 138.6169 0006369 154.2210 205.9356 15.43761671 80802
