OBJECT_NAME,OBJECT_ID,EPOCH,MEAN_MOTION,ECCENTRICITY,INCLINATION,RA_OF_ASC_NODE,ARG_OF_PERICENTER,MEAN_ANOMALY,EPHEMERIS_TYPE,CLASSIFICATION_TYPE,NORAD_CAT_ID,ELEMENT_SET_NO,REV_AT_EPOCH,BSTAR,MEAN_MOTION_DOT,MEAN_MOTION_DDOT
INNOSAT 3 (RS92S0),2025-155U,2026-06-16T03:30:06.575616,15.43761671,.0006369,97.4487,138.6169,154.2210,205.9356,0,U,64894,999,8080,.72704E-3,.329E-3,0
KNACKSAT-2,1998-067XZ,2026-06-16T01:39:43.849728,15.59891318,.0009232,51.6312,300.0997,210.2496,149.7965,0,U,67683,999,2010,.48947E-3,.39932E-3,0
